{"type": "FeatureCollection", "features": [ {"type": "Feature", "properties": {"norad_id": 28659, "name": "DIRECTV 8", "group": "intelsat", "lat": -0.02639947029929463, "lon": -37.24798568006158, "alt_km": 35778.005849933215, "timestamp": "2025-12-18T23:35:48.714866+00:00", "meta": {"OBJECT_NAME": "DIRECTV 8", "OBJECT_ID": "2005-019A", "EPOCH": "2025-12-18T14:20:49.221024", "MEAN_MOTION": 1.00270136, "ECCENTRICITY": 0.00028472, "INCLINATION": 0.0267, "RA_OF_ASC_NODE": 353.8079, "ARG_OF_PERICENTER": 284.0451, "MEAN_ANOMALY": 265.7617, "EPHEMERIS_TYPE": 0, "CLASSIFICATION_TYPE": "U", "NORAD_CAT_ID": 28659, "ELEMENT_SET_NO": 999, "REV_AT_EPOCH": 7526, "BSTAR": 0, "MEAN_MOTION_DOT": 0, "MEAN_MOTION_DDOT": 0}, "tle": {"line1": "1 28659U 05019A   25352.59779191  .00000000  00000+0  00000+0 0  9998", "line2": "2 28659   0.0267 353.8079 0002847 284.0451 265.7617  1.00270136 75261"}}, "geometry": {"type": "Point", "coordinates": [-37.24798568006158, -0.02639947029929463]}}, {"type": "Feature", "properties": {"norad_id": 28702, "name": "GALAXY 28 (G-28)", "group": "intelsat", "lat": -2.834491197387548, "lon": -6.86613787863346, "alt_km": 35784.612817692534, "timestamp": "2025-12-18T23:35:48.714879+00:00", "meta": {"OBJECT_NAME": "GALAXY 28 (G-28)", "OBJECT_ID": "2005-022A", "EPOCH": "2025-12-18T14:35:04.267392", "MEAN_MOTION": 1.00271072, "ECCENTRICITY": 0.00029255, "INCLINATION": 2.8345, "RA_OF_ASC_NODE": 81.215, "ARG_OF_PERICENTER": 191.5639, "MEAN_ANOMALY": 304.7711, "EPHEMERIS_TYPE": 0, "CLASSIFICATION_TYPE": "U", "NORAD_CAT_ID": 28702, "ELEMENT_SET_NO": 999, "REV_AT_EPOCH": 5016, "BSTAR": 0, "MEAN_MOTION_DOT": -1.65e-06, "MEAN_MOTION_DDOT": 0}, "tle": {"line1": "1 28702U 05022A   25352.60768828 -.00000165  00000+0  00000+0 0  9991", "line2": "2 28702   2.8345  81.2150 0002925 191.5639 304.7711  1.00271072 50167"}}, "geometry": {"type": "Point", "coordinates": [-6.86613787863346, -2.834491197387548]}}, {"type": "Feature", "properties": {"norad_id": 29236, "name": "GALAXY 16 (G-16)", "group": "intelsat", "lat": 0.004295455283446649, "lon": -17.19408643846554, "alt_km": 35784.07143678333, "timestamp": "2025-12-18T23:35:48.714891+00:00", "meta": {"OBJECT_NAME": "GALAXY 16 (G-16)", "OBJECT_ID": "2006-023A", "EPOCH": "2025-12-18T14:32:12.041952", "MEAN_MOTION": 1.002715, "ECCENTRICITY": 0.00024721, "INCLINATION": 0.0298, "RA_OF_ASC_NODE": 220.8684, "ARG_OF_PERICENTER": 43.483, "MEAN_ANOMALY": 302.1634, "EPHEMERIS_TYPE": 0, "CLASSIFICATION_TYPE": "U", "NORAD_CAT_ID": 29236, "ELEMENT_SET_NO": 999, "REV_AT_EPOCH": 7116, "BSTAR": 0, "MEAN_MOTION_DOT": -1.02e-06, "MEAN_MOTION_DDOT": 0}, "tle": {"line1": "1 29236U 06023A   25352.60569493 -.00000102  00000+0  00000+0 0  9994", "line2": "2 29236   0.0298 220.8684 0002472  43.4830 302.1634  1.00271500 71160"}}, "geometry": {"type": "Point", "coordinates": [-17.19408643846554, 0.004295455283446649]}}, {"type": "Feature", "properties": {"norad_id": 29494, "name": "DIRECTV 9S", "group": "intelsat", "lat": -1.9143829838695083, "lon": -19.404182381581585, "alt_km": 35781.81209714388, "timestamp": "2025-12-18T23:35:48.714903+00:00", "meta": {"OBJECT_NAME": "DIRECTV 9S", "OBJECT_ID": "2006-043A", "EPOCH": "2025-12-18T14:31:34.602240", "MEAN_MOTION": 1.00271821, "ECCENTRICITY": 0.000281, "INCLINATION": 1.9545, "RA_OF_ASC_NODE": 83.1512, "ARG_OF_PERICENTER": 189.8172, "MEAN_ANOMALY": 291.1806, "EPHEMERIS_TYPE": 0, "CLASSIFICATION_TYPE": "U", "NORAD_CAT_ID": 29494, "ELEMENT_SET_NO": 999, "REV_AT_EPOCH": 4957, "BSTAR": 0, "MEAN_MOTION_DOT": -9e-07, "MEAN_MOTION_DDOT": 0}, "tle": {"line1": "1 29494U 06043A   25352.60526160 -.00000090  00000+0  00000+0 0  9992", "line2": "2 29494   1.9545  83.1512 0002810 189.8172 291.1806  1.00271821 49575"}}, "geometry": {"type": "Point", "coordinates": [-19.404182381581585, -1.9143829838695083]}}, {"type": "Feature", "properties": {"norad_id": 31307, "name": "GALAXY 17 (G-17)", "group": "intelsat", "lat": -2.5053107902302645, "lon": -3.116242249604943, "alt_km": 35792.50045963408, "timestamp": "2025-12-18T23:35:48.714915+00:00", "meta": {"OBJECT_NAME": "GALAXY 17 (G-17)", "OBJECT_ID": "2007-016B", "EPOCH": "2025-12-18T14:36:11.660256", "MEAN_MOTION": 1.00272348, "ECCENTRICITY": 0.00054754, "INCLINATION": 2.5142, "RA_OF_ASC_NODE": 82.2207, "ARG_OF_PERICENTER": 168.9262, "MEAN_ANOMALY": 330.4038, "EPHEMERIS_TYPE": 0, "CLASSIFICATION_TYPE": "U", "NORAD_CAT_ID": 31307, "ELEMENT_SET_NO": 999, "REV_AT_EPOCH": 6799, "BSTAR": 0, "MEAN_MOTION_DOT": -1.84e-06, "MEAN_MOTION_DDOT": 0}, "tle": {"line1": "1 31307U 07016B   25352.60846829 -.00000184  00000+0  00000+0 0  9990", "line2": "2 31307   2.5142  82.2207 0005475 168.9262 330.4038  1.00272348 67995"}}, "geometry": {"type": "Point", "coordinates": [-3.116242249604943, -2.5053107902302645]}}, {"type": "Feature", "properties": {"norad_id": 31862, "name": "DIRECTV 10", "group": "intelsat", "lat": 0.00163128158876867, "lon": -21.019894360546893, "alt_km": 35785.91491300228, "timestamp": "2025-12-18T23:35:48.714927+00:00", "meta": {"OBJECT_NAME": "DIRECTV 10", "OBJECT_ID": "2007-032A", "EPOCH": "2025-12-18T08:57:38.287584", "MEAN_MOTION": 1.00272637, "ECCENTRICITY": 2.082e-05, "INCLINATION": 0.0185, "RA_OF_ASC_NODE": 173.1576, "ARG_OF_PERICENTER": 71.439, "MEAN_ANOMALY": 234.2459, "EPHEMERIS_TYPE": 0, "CLASSIFICATION_TYPE": "U", "NORAD_CAT_ID": 31862, "ELEMENT_SET_NO": 999, "REV_AT_EPOCH": 4378, "BSTAR": 0, "MEAN_MOTION_DOT": -7.8e-07, "MEAN_MOTION_DDOT": 0}, "tle": {"line1": "1 31862U 07032A   25352.37335981 -.00000078  00000+0  00000+0 0  9992", "line2": "2 31862   0.0185 173.1576 0000208  71.4390 234.2459  1.00272637 43789"}}, "geometry": {"type": "Point", "coordinates": [-21.019894360546893, 0.00163128158876867]}}, {"type": "Feature", "properties": {"norad_id": 32253, "name": "INTELSAT 11 (IS-11)", "group": "intelsat", "lat": -1.04136269713561, "lon": -79.97645528809788, "alt_km": 36100.36219788985, "timestamp": "2025-12-18T23:35:48.714938+00:00", "meta": {"OBJECT_NAME": "INTELSAT 11 (IS-11)", "OBJECT_ID": "2007-044B", "EPOCH": "2025-12-18T14:14:43.715328", "MEAN_MOTION": 0.99051433, "ECCENTRICITY": 0.00085662, "INCLINATION": 3.0947, "RA_OF_ASC_NODE": 80.9124, "ARG_OF_PERICENTER": 168.1752, "MEAN_ANOMALY": 251.9743, "EPHEMERIS_TYPE": 0, "CLASSIFICATION_TYPE": "U", "NORAD_CAT_ID": 32253, "ELEMENT_SET_NO": 999, "REV_AT_EPOCH": 6666, "BSTAR": 0, "MEAN_MOTION_DOT": -1e-07, "MEAN_MOTION_DDOT": 0}, "tle": {"line1": "1 32253U 07044B   25352.59356152 -.00000010  00000+0  00000+0 0  9993", "line2": "2 32253   3.0947  80.9124 0008566 168.1752 251.9743  0.99051433 66668"}}, "geometry": {"type": "Point", "coordinates": [-79.97645528809788, -1.04136269713561]}}, {"type": "Feature", "properties": {"norad_id": 32388, "name": "HORIZONS-2", "group": "intelsat", "lat": -2.0555025751999483, "lon": 8.062229100269818, "alt_km": 35787.22065971185, "timestamp": "2025-12-18T23:35:48.714950+00:00", "meta": {"OBJECT_NAME": "HORIZONS-2", "OBJECT_ID": "2007-063B", "EPOCH": "2025-12-18T12:18:18.569952", "MEAN_MOTION": 1.00272474, "ECCENTRICITY": 0.00045679, "INCLINATION": 2.1359, "RA_OF_ASC_NODE": 82.9003, "ARG_OF_PERICENTER": 192.218, "MEAN_ANOMALY": 283.0484, "EPHEMERIS_TYPE": 0, "CLASSIFICATION_TYPE": "U", "NORAD_CAT_ID": 32388, "ELEMENT_SET_NO": 999, "REV_AT_EPOCH": 6600, "BSTAR": 0, "MEAN_MOTION_DOT": -2.3e-06, "MEAN_MOTION_DDOT": 0}, "tle": {"line1": "1 32388U 07063B   25352.51271493 -.00000230  00000+0  00000+0 0  9993", "line2": "2 32388   2.1359  82.9003 0004567 192.2180 283.0484  1.00272474 66001"}}, "geometry": {"type": "Point", "coordinates": [8.062229100269818, -2.0555025751999483]}}, {"type": "Feature", "properties": {"norad_id": 32729, "name": "DIRECTV 11", "group": "intelsat", "lat": 0.002874964874423234, "lon": -17.396153280560814, "alt_km": 35787.43886141525, "timestamp": "2025-12-18T23:35:48.714962+00:00", "meta": {"OBJECT_NAME": "DIRECTV 11", "OBJECT_ID": "2008-013A", "EPOCH": "2025-12-18T13:03:00.501120", "MEAN_MOTION": 1.0027399, "ECCENTRICITY": 4.946e-05, "INCLINATION": 0.0311, "RA_OF_ASC_NODE": 213.2373, "ARG_OF_PERICENTER": 327.9303, "MEAN_ANOMALY": 2.8082, "EPHEMERIS_TYPE": 0, "CLASSIFICATION_TYPE": "U", "NORAD_CAT_ID": 32729, "ELEMENT_SET_NO": 999, "REV_AT_EPOCH": 4378, "BSTAR": 0, "MEAN_MOTION_DOT": -1.01e-06, "MEAN_MOTION_DDOT": 0}, "tle": {"line1": "1 32729U 08013A   25352.54375580 -.00000101  00000+0  00000+0 0  9990", "line2": "2 32729   0.0311 213.2373 0000494 327.9303   2.8082  1.00273990 43788"}}, "geometry": {"type": "Point", "coordinates": [-17.396153280560814, 0.002874964874423234]}}, {"type": "Feature", "properties": {"norad_id": 32951, "name": "GALAXY 18 (G-18)", "group": "intelsat", "lat": -0.031006081496414057, "lon": -41.20111287074054, "alt_km": 35778.24450061016, "timestamp": "2025-12-18T23:35:48.714989+00:00", "meta": {"OBJECT_NAME": "GALAXY 18 (G-18)", "OBJECT_ID": "2008-024A", "EPOCH": "2025-12-18T14:25:20.199072", "MEAN_MOTION": 1.00270842, "ECCENTRICITY": 0.00028221, "INCLINATION": 0.0173, "RA_OF_ASC_NODE": 21.6314, "ARG_OF_PERICENTER": 249.7503, "MEAN_ANOMALY": 269.4101, "EPHEMERIS_TYPE": 0, "CLASSIFICATION_TYPE": "U", "NORAD_CAT_ID": 32951, "ELEMENT_SET_NO": 999, "REV_AT_EPOCH": 4404, "BSTAR": 0, "MEAN_MOTION_DOT": 5e-07, "MEAN_MOTION_DDOT": 0}, "tle": {"line1": "1 32951U 08024A   25352.60092823  .00000050  00000+0  00000+0 0  9994", "line2": "2 32951   0.0173  21.6314 0002822 249.7503 269.4101  1.00270842 44043"}}, "geometry": {"type": "Point", "coordinates": [-41.20111287074054, -0.031006081496414057]}}]}